[{"zip_code":"999078","baidu_city_code":"2911","sortLetters":"A","name":"澳门特别行政区","province_id":34,"id":2,"area_code":0},{"zip_code":"455000","baidu_city_code":"267","sortLetters":"A","name":"安阳市","province_id":6,"id":38,"area_code":250},{"zip_code":"114000","baidu_city_code":"320","sortLetters":"A","name":"鞍山市","province_id":8,"id":55,"area_code":266},{"zip_code":"735400","baidu_city_code":"230","sortLetters":"A","name":"阿拉善盟","province_id":21,"id":98,"area_code":4},{"zip_code":"246000","baidu_city_code":"130","sortLetters":"A","name":"安庆市","province_id":11,"id":129,"area_code":366},{"zip_code":"624000","baidu_city_code":"185","sortLetters":"A","name":"阿坝藏族羌族自治州","province_id":29,"id":257,"area_code":0},{"zip_code":"561000","baidu_city_code":"263","sortLetters":"A","name":"安顺市","province_id":25,"id":261,"area_code":0},{"zip_code":"859000","baidu_city_code":"103","sortLetters":"A","name":"阿里地区","province_id":28,"id":288,"area_code":0},{"zip_code":"836500","baidu_city_code":"96","sortLetters":"A","name":"阿勒泰地区","province_id":13,"id":294,"area_code":0},{"zip_code":"725000","baidu_city_code":"324","sortLetters":"A","name":"安康市","province_id":22,"id":301,"area_code":0},{"zip_code":"843300","baidu_city_code":"731","sortLetters":"A","name":"阿拉尔市","province_id":13,"id":339,"area_code":0},{"zip_code":"843000","baidu_city_code":"85","sortLetters":"A","name":"阿克苏地区","province_id":13,"id":340,"area_code":0},{"zip_code":"100000","baidu_city_code":"131","sortLetters":"B","name":"北京市","province_id":1,"id":3,"area_code":8},{"zip_code":"071000","baidu_city_code":"307","sortLetters":"B","name":"保定市","province_id":5,"id":16,"area_code":202},{"zip_code":"117000","baidu_city_code":"227","sortLetters":"B","name":"本溪市","province_id":8,"id":57,"area_code":268},{"zip_code":"137000","baidu_city_code":"51","sortLetters":"B","name":"白城市","province_id":23,"id":71,"area_code":286},{"zip_code":"134300","baidu_city_code":"57","sortLetters":"B","name":"白山市","province_id":23,"id":74,"area_code":35},{"zip_code":"014000","baidu_city_code":"229","sortLetters":"B","name":"包头市","province_id":21,"id":90,"area_code":314},{"zip_code":"015000","baidu_city_code":"169","sortLetters":"B","name":"巴彦淖尔市","province_id":21,"id":95,"area_code":39},{"zip_code":"256600","baidu_city_code":"235","sortLetters":"B","name":"滨州市","province_id":12,"id":121,"area_code":355},{"zip_code":"233000","baidu_city_code":"126","sortLetters":"B","name":"蚌埠市","province_id":11,"id":125,"area_code":362},{"zip_code":"236000","baidu_city_code":"188","sortLetters":"B","name":"亳州市","province_id":11,"id":132,"area_code":45},{"zip_code":"533000","baidu_city_code":"203","sortLetters":"B","name":"百色市","province_id":18,"id":225,"area_code":510},{"zip_code":"536000","baidu_city_code":"295","sortLetters":"B","name":"北海市","province_id":18,"id":228,"area_code":63},{"zip_code":"636600","baidu_city_code":"239","sortLetters":"B","name":"巴中市","province_id":29,"id":247,"area_code":0},{"zip_code":"551700","baidu_city_code":"206","sortLetters":"B","name":"毕节地区","province_id":25,"id":265,"area_code":0},{"zip_code":"678000","baidu_city_code":"112","sortLetters":"B","name":"保山市","province_id":7,"id":273,"area_code":0},{"zip_code":"833400","baidu_city_code":"88","sortLetters":"B","name":"博尔塔拉蒙古自治州","province_id":13,"id":296,"area_code":0},{"zip_code":"721000","baidu_city_code":"171","sortLetters":"B","name":"宝鸡市","province_id":22,"id":303,"area_code":0},{"zip_code":"730900","baidu_city_code":"35","sortLetters":"B","name":"白银市","province_id":19,"id":318,"area_code":0},{"zip_code":"841000","baidu_city_code":"86","sortLetters":"B","name":"巴音郭楞蒙古自治州","province_id":13,"id":338,"area_code":0},{"zip_code":"404100","baidu_city_code":"132","sortLetters":"C","name":"重庆市","province_id":4,"id":7,"area_code":19},{"zip_code":"610000","baidu_city_code":"75","sortLetters":"C","name":"成都市","province_id":29,"id":11,"area_code":2},{"zip_code":"067000","baidu_city_code":"207","sortLetters":"C","name":"承德市","province_id":5,"id":18,"area_code":204},{"zip_code":"061000","baidu_city_code":"149","sortLetters":"C","name":"沧州市","province_id":5,"id":21,"area_code":207},{"zip_code":"122000","baidu_city_code":"280","sortLetters":"C","name":"朝阳市","province_id":8,"id":63,"area_code":273},{"zip_code":"024000","baidu_city_code":"297","sortLetters":"C","name":"赤峰市","province_id":21,"id":93,"area_code":318},{"zip_code":"213000","baidu_city_code":"348","sortLetters":"C","name":"常州市","province_id":14,"id":108,"area_code":41},{"zip_code":"239000","baidu_city_code":"189","sortLetters":"C","name":"滁州市","province_id":11,"id":123,"area_code":360},{"zip_code":"238000","baidu_city_code":"251","sortLetters":"C","name":"巢湖市","province_id":11,"id":138,"area_code":373},{"zip_code":"247100","baidu_city_code":"299","sortLetters":"C","name":"池州市","province_id":11,"id":139,"area_code":374},{"zip_code":"423000","baidu_city_code":"275","sortLetters":"C","name":"郴州市","province_id":10,"id":190,"area_code":477},{"zip_code":"415000","baidu_city_code":"219","sortLetters":"C","name":"常德市","province_id":10,"id":191,"area_code":478},{"zip_code":"521000","baidu_city_code":"201","sortLetters":"C","name":"潮州市","province_id":26,"id":213,"area_code":62},{"zip_code":"532200","baidu_city_code":"144","sortLetters":"C","name":"崇左市","province_id":18,"id":216,"area_code":505},{"zip_code":"675000","baidu_city_code":"105","sortLetters":"C","name":"楚雄彝族自治州","province_id":7,"id":276,"area_code":0},{"zip_code":"854000","baidu_city_code":"99","sortLetters":"C","name":"昌都地区","province_id":28,"id":286,"area_code":0},{"zip_code":"831100","baidu_city_code":"93","sortLetters":"C","name":"昌吉回族自治州","province_id":13,"id":336,"area_code":0},{"zip_code":"037000","baidu_city_code":"355","sortLetters":"D","name":"大同市","province_id":20,"id":28,"area_code":234},{"zip_code":"116000","baidu_city_code":"167","sortLetters":"D","name":"大连市","province_id":8,"id":54,"area_code":265},{"zip_code":"118000","baidu_city_code":"282","sortLetters":"D","name":"丹东市","province_id":8,"id":58,"area_code":269},{"zip_code":"165000","baidu_city_code":"38","sortLetters":"D","name":"大兴安岭地区","province_id":9,"id":81,"area_code":303},{"zip_code":"163000","baidu_city_code":"50","sortLetters":"D","name":"大庆市","province_id":9,"id":83,"area_code":37},{"zip_code":"253000","baidu_city_code":"372","sortLetters":"D","name":"德州市","province_id":12,"id":115,"area_code":348},{"zip_code":"257000","baidu_city_code":"174","sortLetters":"D","name":"东营市","province_id":12,"id":122,"area_code":358},{"zip_code":"678400","baidu_city_code":"116","sortLetters":"D","name":"德宏傣族景颇族自治州","province_id":7,"id":170,"area_code":6},{"zip_code":"523000","baidu_city_code":"119","sortLetters":"D","name":"东莞市","province_id":26,"id":214,"area_code":62},{"zip_code":"635000","baidu_city_code":"369","sortLetters":"D","name":"达州市","province_id":29,"id":243,"area_code":0},{"zip_code":"618000","baidu_city_code":"74","sortLetters":"D","name":"德阳市","province_id":29,"id":258,"area_code":0},{"zip_code":"671000","baidu_city_code":"111","sortLetters":"D","name":"大理白族自治州","province_id":7,"id":270,"area_code":0},{"zip_code":"674400","baidu_city_code":"115","sortLetters":"D","name":"迪庆藏族自治州","province_id":7,"id":280,"area_code":0},{"zip_code":"743000","baidu_city_code":"136","sortLetters":"D","name":"定西市","province_id":19,"id":307,"area_code":0},{"zip_code":"014300","baidu_city_code":"283","sortLetters":"E","name":"鄂尔多斯市","province_id":21,"id":94,"area_code":319},{"zip_code":"436000","baidu_city_code":"122","sortLetters":"E","name":"鄂州市","province_id":17,"id":173,"area_code":457},{"zip_code":"445000","baidu_city_code":"373","sortLetters":"E","name":"恩施土家族苗族自治州","province_id":17,"id":180,"area_code":57},{"zip_code":"113000","baidu_city_code":"184","sortLetters":"F","name":"抚顺市","province_id":8,"id":56,"area_code":267},{"zip_code":"123000","baidu_city_code":"59","sortLetters":"F","name":"阜新市","province_id":8,"id":61,"area_code":33},{"zip_code":"236000","baidu_city_code":"128","sortLetters":"F","name":"阜阳市","province_id":11,"id":131,"area_code":45},{"zip_code":"350000","baidu_city_code":"300","sortLetters":"F","name":"福州市","province_id":24,"id":151,"area_code":5},{"zip_code":"528000","baidu_city_code":"138","sortLetters":"F","name":"佛山市","province_id":26,"id":206,"area_code":495},{"zip_code":"538000","baidu_city_code":"204","sortLetters":"F","name":"防城港市","province_id":18,"id":215,"area_code":504},{"zip_code":"344000","baidu_city_code":"226","sortLetters":"F","name":"抚州市","province_id":16,"id":233,"area_code":7},{"zip_code":"510000","baidu_city_code":"257","sortLetters":"G","name":"广州市","province_id":26,"id":4,"area_code":16},{"zip_code":"541000","baidu_city_code":"142","sortLetters":"G","name":"桂林市","province_id":18,"id":220,"area_code":507},{"zip_code":"537000","baidu_city_code":"341","sortLetters":"G","name":"贵港市","province_id":18,"id":223,"area_code":509},{"zip_code":"341000","baidu_city_code":"365","sortLetters":"G","name":"赣州市","province_id":16,"id":236,"area_code":7},{"zip_code":"638500","baidu_city_code":"241","sortLetters":"G","name":"广安市","province_id":29,"id":245,"area_code":0},{"zip_code":"638500","baidu_city_code":"329","sortLetters":"G","name":"广元市","province_id":29,"id":246,"area_code":0},{"zip_code":"626000","baidu_city_code":"73","sortLetters":"G","name":"甘孜藏族自治州","province_id":29,"id":256,"area_code":0},{"zip_code":"550000","baidu_city_code":"146","sortLetters":"G","name":"贵阳市","province_id":25,"id":259,"area_code":0},{"zip_code":"747000","baidu_city_code":"247","sortLetters":"G","name":"甘南藏族自治州","province_id":19,"id":317,"area_code":0},{"zip_code":"756000","baidu_city_code":"246","sortLetters":"G","name":"固原市","province_id":30,"id":322,"area_code":0},{"zip_code":"814000","baidu_city_code":"72","sortLetters":"G","name":"果洛藏族自治州","province_id":27,"id":329,"area_code":0},{"zip_code":"056000","baidu_city_code":"151","sortLetters":"H","name":"邯郸市","province_id":5,"id":14,"area_code":200},{"zip_code":"053000","baidu_city_code":"208","sortLetters":"H","name":"衡水市","province_id":5,"id":22,"area_code":25},{"zip_code":"458000","baidu_city_code":"215","sortLetters":"H","name":"鹤壁市","province_id":6,"id":47,"area_code":3},{"zip_code":"125000","baidu_city_code":"319","sortLetters":"H","name":"葫芦岛市","province_id":8,"id":65,"area_code":34},{"zip_code":"150000","baidu_city_code":"48","sortLetters":"H","name":"哈尔滨市","province_id":9,"id":75,"area_code":297},{"zip_code":"164300","baidu_city_code":"39","sortLetters":"H","name":"黑河市","province_id":9,"id":80,"area_code":302},{"zip_code":"154100","baidu_city_code":"43","sortLetters":"H","name":"鹤岗市","province_id":9,"id":86,"area_code":38},{"zip_code":"010000","baidu_city_code":"321","sortLetters":"H","name":"呼和浩特市","province_id":21,"id":88,"area_code":313},{"zip_code":"010000","baidu_city_code":"61","sortLetters":"H","name":"呼伦贝尔市","province_id":21,"id":89,"area_code":313},{"zip_code":"223001","baidu_city_code":"162","sortLetters":"H","name":"淮安市","province_id":14,"id":106,"area_code":335},{"zip_code":"274000","baidu_city_code":"353","sortLetters":"H","name":"菏泽市","province_id":12,"id":111,"area_code":344},{"zip_code":"230000","baidu_city_code":"127","sortLetters":"H","name":"合肥市","province_id":11,"id":124,"area_code":361},{"zip_code":"232000","baidu_city_code":"250","sortLetters":"H","name":"淮南市","province_id":11,"id":127,"area_code":364},{"zip_code":"242700","baidu_city_code":"252","sortLetters":"H","name":"黄山市","province_id":11,"id":133,"area_code":45},{"zip_code":"235000","baidu_city_code":"253","sortLetters":"H","name":"淮北市","province_id":11,"id":134,"area_code":369},{"zip_code":"310000","baidu_city_code":"179","sortLetters":"H","name":"杭州市","province_id":15,"id":141,"area_code":377},{"zip_code":"313000","baidu_city_code":"294","sortLetters":"H","name":"湖州市","province_id":15,"id":142,"area_code":378},{"zip_code":"438000","baidu_city_code":"271","sortLetters":"H","name":"黄冈市","province_id":17,"id":175,"area_code":459},{"zip_code":"435000","baidu_city_code":"311","sortLetters":"H","name":"黄石市","province_id":17,"id":176,"area_code":460},{"zip_code":"421000","baidu_city_code":"159","sortLetters":"H","name":"衡阳市","province_id":10,"id":189,"area_code":476},{"zip_code":"418000","baidu_city_code":"363","sortLetters":"H","name":"怀化市","province_id":10,"id":197,"area_code":485},{"zip_code":"516000","baidu_city_code":"301","sortLetters":"H","name":"惠州市","province_id":26,"id":201,"area_code":490},{"zip_code":"517000","baidu_city_code":"200","sortLetters":"H","name":"河源市","province_id":26,"id":210,"area_code":498},{"zip_code":"542800","baidu_city_code":"260","sortLetters":"H","name":"贺州市","province_id":18,"id":221,"area_code":508},{"zip_code":"547000","baidu_city_code":"143","sortLetters":"H","name":"河池市","province_id":18,"id":227,"area_code":63},{"zip_code":"651400","baidu_city_code":"107","sortLetters":"H","name":"红河哈尼族彝族自治州","province_id":7,"id":271,"area_code":0},{"zip_code":"570100","baidu_city_code":"125","sortLetters":"H","name":"海口市","province_id":31,"id":290,"area_code":0},{"zip_code":"839000","baidu_city_code":"91","sortLetters":"H","name":"哈密地区","province_id":13,"id":292,"area_code":0},{"zip_code":"848000","baidu_city_code":"82","sortLetters":"H","name":"和田地区","province_id":13,"id":293,"area_code":0},{"zip_code":"723000","baidu_city_code":"352","sortLetters":"H","name":"汉中市","province_id":22,"id":302,"area_code":0},{"zip_code":"812200","baidu_city_code":"67","sortLetters":"H","name":"海北藏族自治州","province_id":27,"id":324,"area_code":0},{"zip_code":"810600","baidu_city_code":"69","sortLetters":"H","name":"海东地区","province_id":27,"id":326,"area_code":0},{"zip_code":"811300","baidu_city_code":"70","sortLetters":"H","name":"黄南藏族自治州","province_id":27,"id":327,"area_code":0},{"zip_code":"813000","baidu_city_code":"68","sortLetters":"H","name":"海南藏族自治州","province_id":27,"id":328,"area_code":0},{"zip_code":"817000","baidu_city_code":"65","sortLetters":"H","name":"海西蒙古族藏族自治州","province_id":27,"id":331,"area_code":0},{"zip_code":"030600","baidu_city_code":"238","sortLetters":"J","name":"晋中市","province_id":20,"id":30,"area_code":236},{"zip_code":"048000","baidu_city_code":"290","sortLetters":"J","name":"晋城市","province_id":20,"id":32,"area_code":238},{"zip_code":"454150","baidu_city_code":"211","sortLetters":"J","name":"焦作市","province_id":6,"id":46,"area_code":3},{"zip_code":"121000","baidu_city_code":"166","sortLetters":"J","name":"锦州市","province_id":8,"id":59,"area_code":270},{"zip_code":"132000","baidu_city_code":"55","sortLetters":"J","name":"吉林市","province_id":23,"id":67,"area_code":282},{"zip_code":"154000","baidu_city_code":"42","sortLetters":"J","name":"佳木斯市","province_id":9,"id":78,"area_code":300},{"zip_code":"158100","baidu_city_code":"46","sortLetters":"J","name":"鸡西市","province_id":9,"id":85,"area_code":311},{"zip_code":"250000","baidu_city_code":"288","sortLetters":"J","name":"济南市","province_id":12,"id":112,"area_code":345},{"zip_code":"272000","baidu_city_code":"286","sortLetters":"J","name":"济宁市","province_id":12,"id":118,"area_code":351},{"zip_code":"314000","baidu_city_code":"334","sortLetters":"J","name":"嘉兴市","province_id":15,"id":143,"area_code":379},{"zip_code":"321000","baidu_city_code":"333","sortLetters":"J","name":"金华市","province_id":15,"id":149,"area_code":47},{"zip_code":"522000","baidu_city_code":"259","sortLetters":"J","name":"揭阳市","province_id":26,"id":167,"area_code":435},{"zip_code":"434000","baidu_city_code":"157","sortLetters":"J","name":"荆州市","province_id":17,"id":178,"area_code":462},{"zip_code":"448000","baidu_city_code":"217","sortLetters":"J","name":"荆门市","province_id":17,"id":184,"area_code":468},{"zip_code":"529000","baidu_city_code":"302","sortLetters":"J","name":"江门市","province_id":26,"id":199,"area_code":488},{"zip_code":"332000","baidu_city_code":"349","sortLetters":"J","name":"九江市","province_id":16,"id":231,"area_code":7},{"zip_code":"343000","baidu_city_code":"318","sortLetters":"J","name":"吉安市","province_id":16,"id":235,"area_code":7},{"zip_code":"333000","baidu_city_code":"225","sortLetters":"J","name":"景德镇市","province_id":16,"id":237,"area_code":7},{"zip_code":"737100","baidu_city_code":"34","sortLetters":"J","name":"金昌市","province_id":19,"id":311,"area_code":0},{"zip_code":"735100","baidu_city_code":"33","sortLetters":"J","name":"嘉峪关市","province_id":19,"id":313,"area_code":0},{"zip_code":"735000","baidu_city_code":"37","sortLetters":"J","name":"酒泉市","province_id":19,"id":314,"area_code":0},{"zip_code":"475000","baidu_city_code":"210","sortLetters":"K","name":"开封市","province_id":6,"id":44,"area_code":31},{"zip_code":"650000","baidu_city_code":"104","sortLetters":"K","name":"昆明市","province_id":7,"id":269,"area_code":0},{"zip_code":"845350","baidu_city_code":"84","sortLetters":"K","name":"克孜勒苏柯尔克孜自治州","province_id":13,"id":295,"area_code":0},{"zip_code":"834000","baidu_city_code":"95","sortLetters":"K","name":"克拉玛依市","province_id":13,"id":332,"area_code":0},{"zip_code":"844000","baidu_city_code":"83","sortLetters":"K","name":"喀什地区","province_id":13,"id":342,"area_code":0},{"zip_code":"065000","baidu_city_code":"191","sortLetters":"L","name":"廊坊市","province_id":5,"id":20,"area_code":206},{"zip_code":"041000","baidu_city_code":"368","sortLetters":"L","name":"临汾市","province_id":20,"id":33,"area_code":239},{"zip_code":"033000","baidu_city_code":"327","sortLetters":"L","name":"吕梁市","province_id":20,"id":34,"area_code":29},{"zip_code":"471000","baidu_city_code":"153","sortLetters":"L","name":"洛阳市","province_id":6,"id":45,"area_code":31},{"zip_code":"462000","baidu_city_code":"344","sortLetters":"L","name":"漯河市","province_id":6,"id":50,"area_code":3},{"zip_code":"111000","baidu_city_code":"351","sortLetters":"L","name":"辽阳市","province_id":8,"id":62,"area_code":33},{"zip_code":"136200","baidu_city_code":"183","sortLetters":"L","name":"辽源市","province_id":23,"id":72,"area_code":287},{"zip_code":"222000","baidu_city_code":"347","sortLetters":"L","name":"连云港市","province_id":14,"id":107,"area_code":41},{"zip_code":"276000","baidu_city_code":"234","sortLetters":"L","name":"临沂市","province_id":12,"id":120,"area_code":43},{"zip_code":"237000","baidu_city_code":"298","sortLetters":"L","name":"六安市","province_id":11,"id":137,"area_code":372},{"zip_code":"323000","baidu_city_code":"292","sortLetters":"L","name":"丽水市","province_id":15,"id":148,"area_code":47},{"zip_code":"364000","baidu_city_code":"193","sortLetters":"L","name":"龙岩市","province_id":24,"id":157,"area_code":5},{"zip_code":"271100","baidu_city_code":"124","sortLetters":"L","name":"莱芜市","province_id":12,"id":163,"area_code":412},{"zip_code":"252000","baidu_city_code":"366","sortLetters":"L","name":"聊城市","province_id":12,"id":164,"area_code":413},{"zip_code":"417000","baidu_city_code":"221","sortLetters":"L","name":"娄底市","province_id":10,"id":193,"area_code":59},{"zip_code":"546100","baidu_city_code":"202","sortLetters":"L","name":"来宾市","province_id":18,"id":218,"area_code":506},{"zip_code":"545000","baidu_city_code":"305","sortLetters":"L","name":"柳州市","province_id":18,"id":219,"area_code":506},{"zip_code":"646000","baidu_city_code":"331","sortLetters":"L","name":"泸州市","province_id":29,"id":248,"area_code":0},{"zip_code":"614000","baidu_city_code":"79","sortLetters":"L","name":"乐山市","province_id":29,"id":253,"area_code":0},{"zip_code":"615000","baidu_city_code":"80","sortLetters":"L","name":"凉山彝族自治州","province_id":29,"id":254,"area_code":0},{"zip_code":"553000","baidu_city_code":"147","sortLetters":"L","name":"六盘水市","province_id":25,"id":266,"area_code":0},{"zip_code":"677000","baidu_city_code":"110","sortLetters":"L","name":"临沧市","province_id":7,"id":278,"area_code":0},{"zip_code":"674100","baidu_city_code":"114","sortLetters":"L","name":"丽江市","province_id":7,"id":281,"area_code":0},{"zip_code":"850000","baidu_city_code":"100","sortLetters":"L","name":"拉萨市","province_id":28,"id":282,"area_code":0},{"zip_code":"860000","baidu_city_code":"98","sortLetters":"L","name":"林芝地区","province_id":28,"id":285,"area_code":0},{"zip_code":"731100","baidu_city_code":"182","sortLetters":"L","name":"临夏回族自治州","province_id":19,"id":305,"area_code":0},{"zip_code":"730000","baidu_city_code":"36","sortLetters":"L","name":"兰州市","province_id":19,"id":306,"area_code":0},{"zip_code":"742500","baidu_city_code":"256","sortLetters":"L","name":"陇南市","province_id":19,"id":316,"area_code":0},{"zip_code":"157000","baidu_city_code":"49","sortLetters":"M","name":"牡丹江市","province_id":9,"id":77,"area_code":299},{"zip_code":"243000","baidu_city_code":"358","sortLetters":"M","name":"马鞍山市","province_id":11,"id":128,"area_code":365},{"zip_code":"525000","baidu_city_code":"139","sortLetters":"M","name":"茂名市","province_id":26,"id":168,"area_code":54},{"zip_code":"514000","baidu_city_code":"141","sortLetters":"M","name":"梅州市","province_id":26,"id":202,"area_code":491},{"zip_code":"621000","baidu_city_code":"240","sortLetters":"M","name":"绵阳市","province_id":29,"id":241,"area_code":0},{"zip_code":"620000","baidu_city_code":"77","sortLetters":"M","name":"眉山市","province_id":29,"id":252,"area_code":0},{"zip_code":"210000","baidu_city_code":"315","sortLetters":"N","name":"南京市","province_id":14,"id":9,"area_code":21},{"zip_code":"473000","baidu_city_code":"309","sortLetters":"N","name":"南阳市","province_id":6,"id":43,"area_code":255},{"zip_code":"226000","baidu_city_code":"161","sortLetters":"N","name":"南通市","province_id":14,"id":102,"area_code":331},{"zip_code":"315000","baidu_city_code":"180","sortLetters":"N","name":"宁波市","province_id":15,"id":144,"area_code":380},{"zip_code":"352000","baidu_city_code":"192","sortLetters":"N","name":"宁德市","province_id":24,"id":153,"area_code":5},{"zip_code":"353000","baidu_city_code":"133","sortLetters":"N","name":"南平市","province_id":24,"id":159,"area_code":5},{"zip_code":"530000","baidu_city_code":"261","sortLetters":"N","name":"南宁市","province_id":18,"id":217,"area_code":505},{"zip_code":"330000","baidu_city_code":"163","sortLetters":"N","name":"南昌市","province_id":16,"id":230,"area_code":7},{"zip_code":"637000","baidu_city_code":"291","sortLetters":"N","name":"南充市","province_id":29,"id":242,"area_code":0},{"zip_code":"641000","baidu_city_code":"248","sortLetters":"N","name":"内江市","province_id":29,"id":251,"area_code":0},{"zip_code":"373100","baidu_city_code":"113","sortLetters":"N","name":"怒江傈僳族自治州","province_id":7,"id":279,"area_code":0},{"zip_code":"852000","baidu_city_code":"101","sortLetters":"N","name":"那曲地区","province_id":28,"id":287,"area_code":0},{"zip_code":"467000","baidu_city_code":"213","sortLetters":"P","name":"平顶山市","province_id":6,"id":41,"area_code":253},{"zip_code":"457000","baidu_city_code":"209","sortLetters":"P","name":"濮阳市","province_id":6,"id":48,"area_code":3},{"zip_code":"124000","baidu_city_code":"228","sortLetters":"P","name":"盘锦市","province_id":8,"id":64,"area_code":279},{"zip_code":"351100","baidu_city_code":"195","sortLetters":"P","name":"莆田市","province_id":24,"id":154,"area_code":5},{"zip_code":"337000","baidu_city_code":"350","sortLetters":"P","name":"萍乡市","province_id":16,"id":238,"area_code":7},{"zip_code":"617000","baidu_city_code":"81","sortLetters":"P","name":"攀枝花市","province_id":29,"id":239,"area_code":0},{"zip_code":"744000","baidu_city_code":"359","sortLetters":"P","name":"平凉市","province_id":19,"id":308,"area_code":0},{"zip_code":"665000","baidu_city_code":"108","sortLetters":"P","name":"普洱市","province_id":7,"id":352,"area_code":0},{"zip_code":"066000","baidu_city_code":"148","sortLetters":"Q","name":"秦皇岛市","province_id":5,"id":24,"area_code":221},{"zip_code":"161000","baidu_city_code":"41","sortLetters":"Q","name":"齐齐哈尔市","province_id":9,"id":76,"area_code":298},{"zip_code":"154600","baidu_city_code":"47","sortLetters":"Q","name":"七台河市","province_id":9,"id":84,"area_code":308},{"zip_code":"266000","baidu_city_code":"236","sortLetters":"Q","name":"青岛市","province_id":12,"id":113,"area_code":346},{"zip_code":"324000","baidu_city_code":"243","sortLetters":"Q","name":"衢州市","province_id":15,"id":140,"area_code":376},{"zip_code":"362000","baidu_city_code":"134","sortLetters":"Q","name":"泉州市","province_id":24,"id":155,"area_code":5},{"zip_code":"511500","baidu_city_code":"197","sortLetters":"Q","name":"清远市","province_id":26,"id":211,"area_code":499},{"zip_code":"535000","baidu_city_code":"145","sortLetters":"Q","name":"钦州市","province_id":18,"id":226,"area_code":511},{"zip_code":"558000","baidu_city_code":"306","sortLetters":"Q","name":"黔南布依族苗族自治州","province_id":25,"id":262,"area_code":0},{"zip_code":"556000","baidu_city_code":"342","sortLetters":"Q","name":"黔东南苗族侗族自治州","province_id":25,"id":263,"area_code":0},{"zip_code":"562400","baidu_city_code":"343","sortLetters":"Q","name":"黔西南布依族苗族自治州","province_id":25,"id":267,"area_code":0},{"zip_code":"655000","baidu_city_code":"249","sortLetters":"Q","name":"曲靖市","province_id":7,"id":272,"area_code":0},{"zip_code":"745000","baidu_city_code":"135","sortLetters":"Q","name":"庆阳市","province_id":19,"id":309,"area_code":0},{"zip_code":"433100","baidu_city_code":"1293","sortLetters":"Q","name":"潜江市","province_id":17,"id":349,"area_code":58},{"zip_code":"276800","baidu_city_code":"173","sortLetters":"R","name":"日照市","province_id":12,"id":162,"area_code":411},{"zip_code":"857000","baidu_city_code":"102","sortLetters":"R","name":"日喀则地区","province_id":28,"id":283,"area_code":0},{"zip_code":"200000","baidu_city_code":"289","sortLetters":"S","name":"上海市","province_id":3,"id":5,"area_code":17},{"zip_code":"110000","baidu_city_code":"58","sortLetters":"S","name":"沈阳市","province_id":8,"id":8,"area_code":20},{"zip_code":"050000","baidu_city_code":"150","sortLetters":"S","name":"石家庄市","province_id":5,"id":15,"area_code":201},{"zip_code":"036000","baidu_city_code":"237","sortLetters":"S","name":"朔州市","province_id":20,"id":25,"area_code":28},{"zip_code":"476000","baidu_city_code":"154","sortLetters":"S","name":"商丘市","province_id":6,"id":36,"area_code":248},{"zip_code":"472000","baidu_city_code":"212","sortLetters":"S","name":"三门峡市","province_id":6,"id":52,"area_code":3},{"zip_code":"136000","baidu_city_code":"56","sortLetters":"S","name":"四平市","province_id":23,"id":69,"area_code":284},{"zip_code":"138000","baidu_city_code":"52","sortLetters":"S","name":"松原市","province_id":23,"id":73,"area_code":35},{"zip_code":"152000","baidu_city_code":"44","sortLetters":"S","name":"绥化市","province_id":9,"id":79,"area_code":301},{"zip_code":"155100","baidu_city_code":"45","sortLetters":"S","name":"双鸭山市","province_id":9,"id":87,"area_code":38},{"zip_code":"215000","baidu_city_code":"224","sortLetters":"S","name":"苏州市","province_id":14,"id":101,"area_code":330},{"zip_code":"223800","baidu_city_code":"277","sortLetters":"S","name":"宿迁市","province_id":14,"id":110,"area_code":343},{"zip_code":"234000","baidu_city_code":"370","sortLetters":"S","name":"宿州市","province_id":11,"id":130,"area_code":367},{"zip_code":"312000","baidu_city_code":"293","sortLetters":"S","name":"绍兴市","province_id":15,"id":145,"area_code":381},{"zip_code":"361000","baidu_city_code":"194","sortLetters":"S","name":"厦门市","province_id":24,"id":152,"area_code":5},{"zip_code":"365000","baidu_city_code":"254","sortLetters":"S","name":"三明市","province_id":24,"id":158,"area_code":5},{"zip_code":"516600","baidu_city_code":"339","sortLetters":"S","name":"汕尾市","province_id":26,"id":165,"area_code":432},{"zip_code":"442000","baidu_city_code":"216","sortLetters":"S","name":"十堰市","province_id":17,"id":181,"area_code":57},{"zip_code":"442400","baidu_city_code":"2734","sortLetters":"S","name":"神农架","province_id":17,"id":182,"area_code":57},{"zip_code":"441300","baidu_city_code":"371","sortLetters":"S","name":"随州市","province_id":17,"id":183,"area_code":466},{"zip_code":"422000","baidu_city_code":"273","sortLetters":"S","name":"邵阳市","province_id":10,"id":194,"area_code":59},{"zip_code":"512000","baidu_city_code":"137","sortLetters":"S","name":"韶关市","province_id":26,"id":200,"area_code":489},{"zip_code":"515000","baidu_city_code":"303","sortLetters":"S","name":"汕头市","province_id":26,"id":203,"area_code":492},{"zip_code":"518000","baidu_city_code":"340","sortLetters":"S","name":"深圳市","province_id":26,"id":204,"area_code":493},{"zip_code":"334000","baidu_city_code":"364","sortLetters":"S","name":"上饶市","province_id":16,"id":232,"area_code":7},{"zip_code":"629000","baidu_city_code":"330","sortLetters":"S","name":"遂宁市","province_id":29,"id":244,"area_code":0},{"zip_code":"665000","baidu_city_code":"","sortLetters":"S","name":"思茅市","province_id":7,"id":277,"area_code":0},{"zip_code":"856000","baidu_city_code":"97","sortLetters":"S","name":"山南地区","province_id":28,"id":284,"area_code":0},{"zip_code":"572000","baidu_city_code":"121","sortLetters":"S","name":"三亚市","province_id":31,"id":289,"area_code":0},{"zip_code":"726000","baidu_city_code":"285","sortLetters":"S","name":"商洛市","province_id":22,"id":300,"area_code":0},{"zip_code":"753000","baidu_city_code":"335","sortLetters":"S","name":"石嘴山市","province_id":30,"id":320,"area_code":0},{"zip_code":"832000","baidu_city_code":"770","sortLetters":"S","name":"石河子市","province_id":13,"id":334,"area_code":0},{"zip_code":"442400","baidu_city_code":"2734","sortLetters":"S","name":"神农架林区","province_id":17,"id":351,"area_code":57},{"zip_code":"300000","baidu_city_code":"332","sortLetters":"T","name":"天津市","province_id":2,"id":6,"area_code":18},{"zip_code":"063000","baidu_city_code":"265","sortLetters":"T","name":"唐山市","province_id":5,"id":19,"area_code":205},{"zip_code":"030000","baidu_city_code":"176","sortLetters":"T","name":"太原市","province_id":20,"id":27,"area_code":233},{"zip_code":"112000","baidu_city_code":"60","sortLetters":"T","name":"铁岭市","province_id":8,"id":53,"area_code":264},{"zip_code":"134000","baidu_city_code":"165","sortLetters":"T","name":"通化市","province_id":23,"id":70,"area_code":285},{"zip_code":"028000","baidu_city_code":"64","sortLetters":"T","name":"通辽市","province_id":21,"id":92,"area_code":317},{"zip_code":"225300","baidu_city_code":"276","sortLetters":"T","name":"泰州市","province_id":14,"id":109,"area_code":339},{"zip_code":"271000","baidu_city_code":"325","sortLetters":"T","name":"泰安市","province_id":12,"id":119,"area_code":43},{"zip_code":"244000","baidu_city_code":"337","sortLetters":"T","name":"铜陵市","province_id":11,"id":135,"area_code":370},{"zip_code":"318000","baidu_city_code":"244","sortLetters":"T","name":"台州市","province_id":15,"id":146,"area_code":382},{"zip_code":"554300","baidu_city_code":"205","sortLetters":"T","name":"铜仁地区","province_id":25,"id":264,"area_code":0},{"zip_code":"834700","baidu_city_code":"94","sortLetters":"T","name":"塔城地区","province_id":13,"id":291,"area_code":0},{"zip_code":"727000","baidu_city_code":"232","sortLetters":"T","name":"铜川市","province_id":22,"id":304,"area_code":0},{"zip_code":"741000","baidu_city_code":"196","sortLetters":"T","name":"天水市","province_id":19,"id":315,"area_code":0},{"zip_code":"838000","baidu_city_code":"89","sortLetters":"T","name":"吐鲁番地区","province_id":13,"id":337,"area_code":0},{"zip_code":"844000","baidu_city_code":"792","sortLetters":"T","name":"图木舒克市","province_id":13,"id":341,"area_code":0},{"zip_code":"222","baidu_city_code":"","sortLetters":"T","name":"台湾省","province_id":32,"id":344,"area_code":8862},{"zip_code":"431700","baidu_city_code":"2654","sortLetters":"T","name":"天门市","province_id":17,"id":350,"area_code":58},{"zip_code":"430000","baidu_city_code":"218","sortLetters":"W","name":"武汉市","province_id":17,"id":10,"area_code":23},{"zip_code":"011800","baidu_city_code":"168","sortLetters":"W","name":"乌兰察布市","province_id":21,"id":91,"area_code":316},{"zip_code":"214000","baidu_city_code":"317","sortLetters":"W","name":"无锡市","province_id":14,"id":99,"area_code":328},{"zip_code":"261000","baidu_city_code":"287","sortLetters":"W","name":"潍坊市","province_id":12,"id":117,"area_code":350},{"zip_code":"241000","baidu_city_code":"129","sortLetters":"W","name":"芜湖市","province_id":11,"id":126,"area_code":363},{"zip_code":"325000","baidu_city_code":"178","sortLetters":"W","name":"温州市","province_id":15,"id":147,"area_code":383},{"zip_code":"264200","baidu_city_code":"175","sortLetters":"W","name":"威海市","province_id":12,"id":160,"area_code":409},{"zip_code":"543000","baidu_city_code":"304","sortLetters":"W","name":"梧州市","province_id":18,"id":222,"area_code":508},{"zip_code":"663000","baidu_city_code":"177","sortLetters":"W","name":"文山壮族苗族自治州","province_id":7,"id":274,"area_code":0},{"zip_code":"714000","baidu_city_code":"170","sortLetters":"W","name":"渭南市","province_id":22,"id":299,"area_code":0},{"zip_code":"733000","baidu_city_code":"118","sortLetters":"W","name":"武威市","province_id":19,"id":310,"area_code":0},{"zip_code":"751100","baidu_city_code":"322","sortLetters":"W","name":"吴忠市","province_id":30,"id":321,"area_code":0},{"zip_code":"830000","baidu_city_code":"92","sortLetters":"W","name":"乌鲁木齐市","province_id":13,"id":333,"area_code":0},{"zip_code":"831300","baidu_city_code":"789","sortLetters":"W","name":"五家渠市","province_id":13,"id":335,"area_code":0},{"zip_code":"016000","baidu_city_code":"123","sortLetters":"W","name":"乌海市","province_id":21,"id":345,"area_code":315},{"zip_code":"999077","baidu_city_code":"2912","sortLetters":"X","name":"香港特别行政区","province_id":33,"id":1,"area_code":0},{"zip_code":"710000","baidu_city_code":"233","sortLetters":"X","name":"西安市","province_id":22,"id":12,"area_code":2},{"zip_code":"712000","baidu_city_code":"323","sortLetters":"X","name":"咸阳市","province_id":22,"id":13,"area_code":2},{"zip_code":"054000","baidu_city_code":"266","sortLetters":"X","name":"邢台市","province_id":5,"id":23,"area_code":25},{"zip_code":"034000","baidu_city_code":"367","sortLetters":"X","name":"忻州市","province_id":20,"id":26,"area_code":232},{"zip_code":"453000","baidu_city_code":"152","sortLetters":"X","name":"新乡市","province_id":6,"id":39,"area_code":251},{"zip_code":"461000","baidu_city_code":"155","sortLetters":"X","name":"许昌市","province_id":6,"id":40,"area_code":252},{"zip_code":"464000","baidu_city_code":"214","sortLetters":"X","name":"信阳市","province_id":6,"id":42,"area_code":254},{"zip_code":"026000","baidu_city_code":"63","sortLetters":"X","name":"锡林郭勒盟","province_id":21,"id":96,"area_code":39},{"zip_code":"029400","baidu_city_code":"62","sortLetters":"X","name":"兴安盟","province_id":21,"id":97,"area_code":4},{"zip_code":"221000","baidu_city_code":"316","sortLetters":"X","name":"徐州市","province_id":14,"id":105,"area_code":334},{"zip_code":"242000","baidu_city_code":"190","sortLetters":"X","name":"宣城市","province_id":11,"id":136,"area_code":371},{"zip_code":"666100","baidu_city_code":"109","sortLetters":"X","name":"西双版纳傣族自治州","province_id":7,"id":169,"area_code":6},{"zip_code":"441000","baidu_city_code":"","sortLetters":"X","name":"襄樊市","province_id":17,"id":172,"area_code":456},{"zip_code":"432000","baidu_city_code":"310","sortLetters":"X","name":"孝感市","province_id":17,"id":174,"area_code":458},{"zip_code":"437000","baidu_city_code":"362","sortLetters":"X","name":"咸宁市","province_id":17,"id":177,"area_code":461},{"zip_code":"411100","baidu_city_code":"313","sortLetters":"X","name":"湘潭市","province_id":10,"id":187,"area_code":474},{"zip_code":"416000","baidu_city_code":"274","sortLetters":"X","name":"湘西土家族苗族自治州","province_id":10,"id":195,"area_code":483},{"zip_code":"338000","baidu_city_code":"164","sortLetters":"X","name":"新余市","province_id":16,"id":229,"area_code":7},{"zip_code":"810000","baidu_city_code":"66","sortLetters":"X","name":"西宁市","province_id":27,"id":325,"area_code":0},{"zip_code":"441000","baidu_city_code":"156","sortLetters":"X","name":"襄阳市","province_id":17,"id":347,"area_code":456},{"zip_code":"433000","baidu_city_code":"1713","sortLetters":"X","name":"仙桃市","province_id":17,"id":348,"area_code":58},{"zip_code":"045000","baidu_city_code":"357","sortLetters":"Y","name":"阳泉市","province_id":20,"id":29,"area_code":235},{"zip_code":"044000","baidu_city_code":"328","sortLetters":"Y","name":"运城市","province_id":20,"id":35,"area_code":29},{"zip_code":"115000","baidu_city_code":"281","sortLetters":"Y","name":"营口市","province_id":8,"id":60,"area_code":271},{"zip_code":"133000","baidu_city_code":"54","sortLetters":"Y","name":"延边朝鲜族自治州","province_id":23,"id":68,"area_code":283},{"zip_code":"153000","baidu_city_code":"40","sortLetters":"Y","name":"伊春市","province_id":9,"id":82,"area_code":37},{"zip_code":"225000","baidu_city_code":"346","sortLetters":"Y","name":"扬州市","province_id":14,"id":103,"area_code":332},{"zip_code":"224000","baidu_city_code":"223","sortLetters":"Y","name":"盐城市","province_id":14,"id":104,"area_code":333},{"zip_code":"264000","baidu_city_code":"326","sortLetters":"Y","name":"烟台市","province_id":12,"id":116,"area_code":349},{"zip_code":"529500","baidu_city_code":"199","sortLetters":"Y","name":"阳江市","province_id":26,"id":166,"area_code":434},{"zip_code":"335000","baidu_city_code":"279","sortLetters":"Y","name":"鹰潭市","province_id":16,"id":171,"area_code":449},{"zip_code":"443000","baidu_city_code":"270","sortLetters":"Y","name":"宜昌市","province_id":17,"id":179,"area_code":463},{"zip_code":"414000","baidu_city_code":"220","sortLetters":"Y","name":"岳阳市","province_id":10,"id":185,"area_code":472},{"zip_code":"413000","baidu_city_code":"272","sortLetters":"Y","name":"益阳市","province_id":10,"id":192,"area_code":479},{"zip_code":"425000","baidu_city_code":"314","sortLetters":"Y","name":"永州市","province_id":10,"id":198,"area_code":486},{"zip_code":"527300","baidu_city_code":"258","sortLetters":"Y","name":"云浮市","province_id":26,"id":212,"area_code":502},{"zip_code":"537000","baidu_city_code":"361","sortLetters":"Y","name":"玉林市","province_id":18,"id":224,"area_code":509},{"zip_code":"336000","baidu_city_code":"278","sortLetters":"Y","name":"宜春市","province_id":16,"id":234,"area_code":7},{"zip_code":"644000","baidu_city_code":"186","sortLetters":"Y","name":"宜宾市","province_id":29,"id":249,"area_code":0},{"zip_code":"625000","baidu_city_code":"76","sortLetters":"Y","name":"雅安市","province_id":29,"id":255,"area_code":0},{"zip_code":"653100","baidu_city_code":"106","sortLetters":"Y","name":"玉溪市","province_id":7,"id":275,"area_code":0},{"zip_code":"716000","baidu_city_code":"284","sortLetters":"Y","name":"延安市","province_id":22,"id":297,"area_code":0},{"zip_code":"719000","baidu_city_code":"231","sortLetters":"Y","name":"榆林市","province_id":22,"id":298,"area_code":0},{"zip_code":"750000","baidu_city_code":"360","sortLetters":"Y","name":"银川市","province_id":30,"id":319,"area_code":0},{"zip_code":"815000","baidu_city_code":"71","sortLetters":"Y","name":"玉树藏族自治州","province_id":27,"id":330,"area_code":0},{"zip_code":"835000","baidu_city_code":"90","sortLetters":"Y","name":"伊犁哈萨克自治州","province_id":13,"id":343,"area_code":0},{"zip_code":"075000","baidu_city_code":"264","sortLetters":"Z","name":"张家口市","province_id":5,"id":17,"area_code":203},{"zip_code":"046000","baidu_city_code":"356","sortLetters":"Z","name":"长治市","province_id":20,"id":31,"area_code":237},{"zip_code":"450000","baidu_city_code":"268","sortLetters":"Z","name":"郑州市","province_id":6,"id":37,"area_code":249},{"zip_code":"466000","baidu_city_code":"308","sortLetters":"Z","name":"周口市","province_id":6,"id":49,"area_code":3},{"zip_code":"463000","baidu_city_code":"269","sortLetters":"Z","name":"驻马店市","province_id":6,"id":51,"area_code":3},{"zip_code":"130000","baidu_city_code":"53","sortLetters":"Z","name":"长春市","province_id":23,"id":66,"area_code":281},{"zip_code":"212000","baidu_city_code":"160","sortLetters":"Z","name":"镇江市","province_id":14,"id":100,"area_code":329},{"zip_code":"255000","baidu_city_code":"354","sortLetters":"Z","name":"淄博市","province_id":12,"id":114,"area_code":347},{"zip_code":"316000","baidu_city_code":"245","sortLetters":"Z","name":"舟山市","province_id":15,"id":150,"area_code":5},{"zip_code":"363000","baidu_city_code":"255","sortLetters":"Z","name":"漳州市","province_id":24,"id":156,"area_code":5},{"zip_code":"277000","baidu_city_code":"172","sortLetters":"Z","name":"枣庄市","province_id":12,"id":161,"area_code":410},{"zip_code":"410000","baidu_city_code":"158","sortLetters":"Z","name":"长沙市","province_id":10,"id":186,"area_code":473},{"zip_code":"412000","baidu_city_code":"222","sortLetters":"Z","name":"株洲市","province_id":10,"id":188,"area_code":475},{"zip_code":"427000","baidu_city_code":"312","sortLetters":"Z","name":"张家界市","province_id":10,"id":196,"area_code":484},{"zip_code":"519000","baidu_city_code":"140","sortLetters":"Z","name":"珠海市","province_id":26,"id":205,"area_code":494},{"zip_code":"526000","baidu_city_code":"338","sortLetters":"Z","name":"肇庆市","province_id":26,"id":207,"area_code":61},{"zip_code":"524000","baidu_city_code":"198","sortLetters":"Z","name":"湛江市","province_id":26,"id":208,"area_code":61},{"zip_code":"528400","baidu_city_code":"187","sortLetters":"Z","name":"中山市","province_id":26,"id":209,"area_code":496},{"zip_code":"643000","baidu_city_code":"78","sortLetters":"Z","name":"自贡市","province_id":29,"id":240,"area_code":0},{"zip_code":"641300","baidu_city_code":"242","sortLetters":"Z","name":"资阳市","province_id":29,"id":250,"area_code":0},{"zip_code":"563000","baidu_city_code":"262","sortLetters":"Z","name":"遵义市","province_id":25,"id":260,"area_code":0},{"zip_code":"657000","baidu_city_code":"336","sortLetters":"Z","name":"昭通市","province_id":7,"id":268,"area_code":0},{"zip_code":"734000","baidu_city_code":"117","sortLetters":"Z","name":"张掖市","province_id":19,"id":312,"area_code":0},{"zip_code":"755000","baidu_city_code":"181","sortLetters":"Z","name":"中卫市","province_id":30,"id":323,"area_code":0}]